{
  "links" : {
    "next" : "https://api.nasa.gov/neo/rest/v1/feed?start_date=2014-11-16&end_date=2014-11-16&detailed=true&api_key=t0TVs3DtDT2H8Oy2Zy8m2eVrNsAVKAexjcZXUckd",
    "prev" : "https://api.nasa.gov/neo/rest/v1/feed?start_date=2014-11-14&end_date=2014-11-14&detailed=true&api_key=t0TVs3DtDT2H8Oy2Zy8m2eVrNsAVKAexjcZXUckd",
    "self" : "https://api.nasa.gov/neo/rest/v1/feed?start_date=2014-11-15&end_date=2014-11-15&detailed=true&api_key=t0TVs3DtDT2H8Oy2Zy8m2eVrNsAVKAexjcZXUckd"
  },
  "element_count" : 14,
  "near_earth_objects" : {
    "2014-11-15" : [ {
      "links" : {
        "self" : "https://api.nasa.gov/neo/rest/v1/neo/3697801?api_key=t0TVs3DtDT2H8Oy2Zy8m2eVrNsAVKAexjcZXUckd"
      },
      "neo_reference_id" : "3697801",
      "name" : "(2014 WF200)",
      "nasa_jpl_url" : "http://ssd.jpl.nasa.gov/sbdb.cgi?sstr=3697801",
      "absolute_magnitude_h" : 27.4,
      "estimated_diameter" : {
        "kilometers" : {
          "estimated_diameter_min" : 0.0088014652,
          "estimated_diameter_max" : 0.0196806745
        },
        "meters" : {
          "estimated_diameter_min" : 8.801465209,
          "estimated_diameter_max" : 19.6806745089
        },
        "miles" : {
          "estimated_diameter_min" : 0.0054689752,
          "estimated_diameter_max" : 0.0122290004
        },
        "feet" : {
          "estimated_diameter_min" : 28.8761991163,
          "estimated_diameter_max" : 64.5691441559
        }
      },
      "is_potentially_hazardous_asteroid" : false,
      "close_approach_data" : [ {
        "close_approach_date" : "2014-11-15",
        "epoch_date_close_approach" : 1416038400000,
        "relative_velocity" : {
          "kilometers_per_second" : "8.7837909771",
          "kilometers_per_hour" : "31621.6475175942",
          "miles_per_hour" : "19648.4620366962"
        },
        "miss_distance" : {
          "astronomical" : "0.0135531527",
          "lunar" : "5.2721762657",
          "kilometers" : "2027522.875",
          "miles" : "1259844.25"
        },
        "orbiting_body" : "Earth"
      } ],
      "orbital_data" : {
        "orbit_id" : "3",
        "orbit_determination_date" : "2017-04-06 08:37:19",
        "orbit_uncertainty" : "8",
        "minimum_orbit_intersection" : ".0118176",
        "jupiter_tisserand_invariant" : "4.991",
        "epoch_osculation" : "2456982.5",
        "eccentricity" : ".3145761244234621",
        "semi_major_axis" : "1.284121905570718",
        "inclination" : "5.300780234559713",
        "ascending_node_longitude" : "58.6937371364746",
        "orbital_period" : "531.5055560377775",
        "perihelion_distance" : ".8801678132290103",
        "perihelion_argument" : "294.5831919610492",
        "aphelion_distance" : "1.688075997912425",
        "perihelion_time" : "2456929.848354312934",
        "mean_anomaly" : "35.66207771870693",
        "mean_motion" : ".6773212357057892",
        "equinox" : "J2000"
      }
    }, {
      "links" : {
        "self" : "https://api.nasa.gov/neo/rest/v1/neo/3699887?api_key=t0TVs3DtDT2H8Oy2Zy8m2eVrNsAVKAexjcZXUckd"
      },
      "neo_reference_id" : "3699887",
      "name" : "(2014 WT365)",
      "nasa_jpl_url" : "http://ssd.jpl.nasa.gov/sbdb.cgi?sstr=3699887",
      "absolute_magnitude_h" : 20.8,
      "estimated_diameter" : {
        "kilometers" : {
          "estimated_diameter_min" : 0.1838886721,
          "estimated_diameter_max" : 0.411187571
        },
        "meters" : {
          "estimated_diameter_min" : 183.8886720703,
          "estimated_diameter_max" : 411.1875710413
        },
        "miles" : {
          "estimated_diameter_min" : 0.1142630881,
          "estimated_diameter_max" : 0.2555000322
        },
        "feet" : {
          "estimated_diameter_min" : 603.309310875,
          "estimated_diameter_max" : 1349.040630575
        }
      },
      "is_potentially_hazardous_asteroid" : false,
      "close_approach_data" : [ {
        "close_approach_date" : "2014-11-15",
        "epoch_date_close_approach" : 1416038400000,
        "relative_velocity" : {
          "kilometers_per_second" : "4.9444912916",
          "kilometers_per_hour" : "17800.1686497356",
          "miles_per_hour" : "11060.3325701649"
        },
        "miss_distance" : {
          "astronomical" : "0.3130605908",
          "lunar" : "121.7805633545",
          "kilometers" : "46833196",
          "miles" : "29100800"
        },
        "orbiting_body" : "Earth"
      } ],
      "orbital_data" : {
        "orbit_id" : "8",
        "orbit_determination_date" : "2017-04-06 08:37:03",
        "orbit_uncertainty" : "6",
        "minimum_orbit_intersection" : ".27424",
        "jupiter_tisserand_invariant" : "3.236",
        "epoch_osculation" : "2458000.5",
        "eccentricity" : ".5081976892383018",
        "semi_major_axis" : "2.54839349056128",
        "inclination" : "7.81345294115447",
        "ascending_node_longitude" : "262.9665287799277",
        "orbital_period" : "1485.929338163802",
        "perihelion_distance" : "1.253305807388107",
        "perihelion_argument" : "151.8652037155409",
        "aphelion_distance" : "3.843481173734452",
        "perihelion_time" : "2458473.422067749142",
        "mean_anomaly" : "245.4239296465635",
        "mean_motion" : ".2422726241106865",
        "equinox" : "J2000"
      }
    }, {
      "links" : {
        "self" : "https://api.nasa.gov/neo/rest/v1/neo/3702322?api_key=t0TVs3DtDT2H8Oy2Zy8m2eVrNsAVKAexjcZXUckd"
      },
      "neo_reference_id" : "3702322",
      "name" : "(2014 YG)",
      "nasa_jpl_url" : "http://ssd.jpl.nasa.gov/sbdb.cgi?sstr=3702322",
      "absolute_magnitude_h" : 22.1,
      "estimated_diameter" : {
        "kilometers" : {
          "estimated_diameter_min" : 0.1010543415,
          "estimated_diameter_max" : 0.2259643771
        },
        "meters" : {
          "estimated_diameter_min" : 101.054341542,
          "estimated_diameter_max" : 225.9643771094
        },
        "miles" : {
          "estimated_diameter_min" : 0.0627922373,
          "estimated_diameter_max" : 0.140407711
        },
        "feet" : {
          "estimated_diameter_min" : 331.5431259047,
          "estimated_diameter_max" : 741.3529669956
        }
      },
      "is_potentially_hazardous_asteroid" : false,
      "close_approach_data" : [ {
        "close_approach_date" : "2014-11-15",
        "epoch_date_close_approach" : 1416038400000,
        "relative_velocity" : {
          "kilometers_per_second" : "13.5740697224",
          "kilometers_per_hour" : "48866.6510006126",
          "miles_per_hour" : "30363.8365620196"
        },
        "miss_distance" : {
          "astronomical" : "0.0670514404",
          "lunar" : "26.0830097198",
          "kilometers" : "10030753",
          "miles" : "6232821"
        },
        "orbiting_body" : "Earth"
      } ],
      "orbital_data" : {
        "orbit_id" : "8",
        "orbit_determination_date" : "2017-04-06 08:36:50",
        "orbit_uncertainty" : "8",
        "minimum_orbit_intersection" : ".0559447",
        "jupiter_tisserand_invariant" : "3.608",
        "epoch_osculation" : "2457009.5",
        "eccentricity" : ".5698371956222154",
        "semi_major_axis" : "2.008863524969092",
        "inclination" : "4.387594195905567",
        "ascending_node_longitude" : "1.420088718184492",
        "orbital_period" : "1039.977819594738",
        "perihelion_distance" : ".8641383675129466",
        "perihelion_argument" : "359.2528240664437",
        "aphelion_distance" : "3.153588682425239",
        "perihelion_time" : "2456940.947297163427",
        "mean_anomaly" : "23.73028785439218",
        "mean_motion" : ".3461612288426362",
        "equinox" : "J2000"
      }
    } ]
  }
}